[{"OBJECT_NAME":"STARLINK-5444","OBJECT_ID":"2022-175L","EPOCH":"2026-03-09T03:46:26.838048","MEAN_MOTION":15.08839083,"ECCENTRICITY":0.00015235,"INCLINATION":53.2191,"RA_OF_ASC_NODE":31.8934,"ARG_OF_PERICENTER":93.3013,"MEAN_ANOMALY":266.8153,"EPHEMERIS_TYPE":0,"CLASSIFICATION_TYPE":"U","NORAD_CAT_ID":54768,"ELEMENT_SET_NO":999,"REV_AT_EPOCH":18004,"BSTAR":-1.0831251e-5,"MEAN_MOTION_DOT":-4.6e-6,"MEAN_MOTION_DDOT":0},{"OBJECT_NAME":"COSMOS 1275 DEB","OBJECT_ID":"1981-053RH","EPOCH":"2026-03-08T19:02:02.535360","MEAN_MOTION":15.08606043,"ECCENTRICITY":0.00097404,"INCLINATION":83.3308,"RA_OF_ASC_NODE":196.5935,"ARG_OF_PERICENTER":282.896,"MEAN_ANOMALY":77.1182,"EPHEMERIS_TYPE":0,"CLASSIFICATION_TYPE":"U","NORAD_CAT_ID":42145,"ELEMENT_SET_NO":999,"REV_AT_EPOCH":64889,"BSTAR":0.0090120528,"MEAN_MOTION_DOT":0.00143721,"MEAN_MOTION_DDOT":0}]
